{
  "type": "FeatureCollection",
  "features": [
    {
      "type": "Feature",
      "properties": {
        "norad_id": 38833,
        "name": "GPS BIIF-3  (PRN 24)",
        "group": "gps-ops",
        "lat": -8.193981955240224,
        "lon": -22.533697505924867,
        "alt_km": 20453.423403056342,
        "timestamp": "2025-12-09T14:52:26.420741+00:00",
        "meta_object_name": "GPS BIIF-3  (PRN 24)",
        "meta_object_id": "2012-053A",
        "meta_epoch": "2025-12-08T20:42:06.969888",
        "meta_mean_motion": 2.00564932,
        "meta_eccentricity": 0.01756647,
        "meta_inclination": 53.5568,
        "meta_ra_of_asc_node": 151.3974,
        "meta_arg_of_pericenter": 63.9455,
        "meta_mean_anomaly": 297.8485,
        "meta_ephemeris_type": 0,
        "meta_classification_type": "U",
        "meta_norad_cat_id": 38833,
        "meta_element_set_no": 999,
        "meta_rev_at_epoch": 9562,
        "meta_bstar": 0,
        "meta_mean_motion_dot": 5.9e-07,
        "meta_mean_motion_ddot": 0,
        "tle_line1": "1 38833U 12053A   25342.86258067  .00000059  00000+0  00000+0 0  9996",
        "tle_line2": "2 38833  53.5568 151.3974 0175664  63.9455 297.8485  2.00564932 95626"
      },
      "geometry": {
        "type": "Point",
        "coordinates": [
          -22.533697505924867,
          -8.193981955240224
        ]
      }
    },
    {
      "type": "Feature",
      "properties": {
        "norad_id": 39166,
        "name": "GPS BIIF-4  (PRN 27)",
        "group": "gps-ops",
        "lat": -52.07026352696676,
        "lon": -148.74866990924062,
        "alt_km": 20387.084551706415,
        "timestamp": "2025-12-09T14:52:26.420752+00:00",
        "meta_object_name": "GPS BIIF-4  (PRN 27)",
        "meta_object_id": "2013-023A",
        "meta_epoch": "2025-12-08T05:28:17.877216",
        "meta_mean_motion": 2.00565078,
        "meta_eccentricity": 0.01376231,
        "meta_inclination": 54.656,
        "meta_ra_of_asc_node": 276.7517,
        "meta_arg_of_pericenter": 48.5653,
        "meta_mean_anomaly": 312.6225,
        "meta_ephemeris_type": 0,
        "meta_classification_type": "U",
        "meta_norad_cat_id": 39166,
        "meta_element_set_no": 999,
        "meta_rev_at_epoch": 9205,
        "meta_bstar": 0,
        "meta_mean_motion_dot": -4.1e-07,
        "meta_mean_motion_ddot": 0,
        "tle_line1": "1 39166U 13023A   25342.22798469 -.00000041  00000+0  00000+0 0  9991",
        "tle_line2": "2 39166  54.6560 276.7517 0137623  48.5653 312.6225  2.00565078 92051"
      },
      "geometry": {
        "type": "Point",
        "coordinates": [
          -148.74866990924062,
          -52.07026352696676
        ]
      }
    },
    {
      "type": "Feature",
      "properties": {
        "norad_id": 39533,
        "name": "GPS BIIF-5  (PRN 30)",
        "group": "gps-ops",
        "lat": -49.431773782589616,
        "lon": 97.6191799324493,
        "alt_km": 20089.546570750987,
        "timestamp": "2025-12-09T14:52:26.420763+00:00",
        "meta_object_name": "GPS BIIF-5  (PRN 30)",
        "meta_object_id": "2014-008A",
        "meta_epoch": "2025-12-08T17:17:53.714976",
        "meta_mean_motion": 2.00574163,
        "meta_eccentricity": 0.0079112,
        "meta_inclination": 53.6309,
        "meta_ra_of_asc_node": 157.0886,
        "meta_arg_of_pericenter": 226.4438,
        "meta_mean_anomaly": 132.9028,
        "meta_ephemeris_type": 0,
        "meta_classification_type": "U",
        "meta_norad_cat_id": 39533,
        "meta_element_set_no": 999,
        "meta_rev_at_epoch": 8586,
        "meta_bstar": 0,
        "meta_mean_motion_dot": 5.9e-07,
        "meta_mean_motion_ddot": 0,
        "tle_line1": "1 39533U 14008A   25342.72076059  .00000059  00000+0  00000+0 0  9990",
        "tle_line2": "2 39533  53.6309 157.0886 0079112 226.4438 132.9028  2.00574163 85865"
      },
      "geometry": {
        "type": "Point",
        "coordinates": [
          97.6191799324493,
          -49.431773782589616
        ]
      }
    },
    {
      "type": "Feature",
      "properties": {
        "norad_id": 39741,
        "name": "GPS BIIF-6  (PRN 06)",
        "group": "gps-ops",
        "lat": 56.22450042890161,
        "lon": 59.64291367032968,
        "alt_km": 20237.460617693796,
        "timestamp": "2025-12-09T14:52:26.420775+00:00",
        "meta_object_name": "GPS BIIF-6  (PRN 06)",
        "meta_object_id": "2014-026A",
        "meta_epoch": "2025-12-09T00:05:22.717824",
        "meta_mean_motion": 2.00561537,
        "meta_eccentricity": 0.00390851,
        "meta_inclination": 56.5851,
        "meta_ra_of_asc_node": 338.9217,
        "meta_arg_of_pericenter": 318.4622,
        "meta_mean_anomaly": 41.2516,
        "meta_ephemeris_type": 0,
        "meta_classification_type": "U",
        "meta_norad_cat_id": 39741,
        "meta_element_set_no": 999,
        "meta_rev_at_epoch": 8472,
        "meta_bstar": 0,
        "meta_mean_motion_dot": -8.4e-07,
        "meta_mean_motion_ddot": 0,
        "tle_line1": "1 39741U 14026A   25343.00373516 -.00000084  00000+0  00000+0 0  9990",
        "tle_line2": "2 39741  56.5851 338.9217 0039085 318.4622  41.2516  2.00561537 84729"
      },
      "geometry": {
        "type": "Point",
        "coordinates": [
          59.64291367032968,
          56.22450042890161
        ]
      }
    },
    {
      "type": "Feature",
      "properties": {
        "norad_id": 40105,
        "name": "GPS BIIF-7  (PRN 09)",
        "group": "gps-ops",
        "lat": 17.434734025055516,
        "lon": 108.606646037678,
        "alt_km": 20191.90941151543,
        "timestamp": "2025-12-09T14:52:26.420786+00:00",
        "meta_object_name": "GPS BIIF-7  (PRN 09)",
        "meta_object_id": "2014-045A",
        "meta_epoch": "2025-12-08T14:13:50.768544",
        "meta_mean_motion": 2.00572212,
        "meta_eccentricity": 0.00327724,
        "meta_inclination": 55.2267,
        "meta_ra_of_asc_node": 96.0644,
        "meta_arg_of_pericenter": 119.7768,
        "meta_mean_anomaly": 240.5333,
        "meta_ephemeris_type": 0,
        "meta_classification_type": "U",
        "meta_norad_cat_id": 40105,
        "meta_element_set_no": 999,
        "meta_rev_at_epoch": 8225,
        "meta_bstar": 0,
        "meta_mean_motion_dot": 0,
        "meta_mean_motion_ddot": 0,
        "tle_line1": "1 40105U 14045A   25342.59294871  .00000000  00000+0  00000+0 0  9993",
        "tle_line2": "2 40105  55.2267  96.0644 0032772 119.7768 240.5333  2.00572212 82256"
      },
      "geometry": {
        "type": "Point",
        "coordinates": [
          108.606646037678,
          17.434734025055516
        ]
      }
    },
    {
      "type": "Feature",
      "properties": {
        "norad_id": 40294,
        "name": "GPS BIIF-8  (PRN 03)",
        "group": "gps-ops",
        "lat": 51.47378087494634,
        "lon": 163.19660827554193,
        "alt_km": 20054.82871143465,
        "timestamp": "2025-12-09T14:52:26.420798+00:00",
        "meta_object_name": "GPS BIIF-8  (PRN 03)",
        "meta_object_id": "2014-068A",
        "meta_epoch": "2025-12-08T11:17:40.854336",
        "meta_mean_motion": 2.00564487,
        "meta_eccentricity": 0.00607942,
        "meta_inclination": 56.8546,
        "meta_ra_of_asc_node": 38.3112,
        "meta_arg_of_pericenter": 69.2801,
        "meta_mean_anomaly": 291.427,
        "meta_ephemeris_type": 0,
        "meta_classification_type": "U",
        "meta_norad_cat_id": 40294,
        "meta_element_set_no": 999,
        "meta_rev_at_epoch": 8138,
        "meta_bstar": 0,
        "meta_mean_motion_dot": -7.8e-07,
        "meta_mean_motion_ddot": 0,
        "tle_line1": "1 40294U 14068A   25342.47061174 -.00000078  00000+0  00000+0 0  9998",
        "tle_line2": "2 40294  56.8546  38.3112 0060794  69.2801 291.4270  2.00564487 81386"
      },
      "geometry": {
        "type": "Point",
        "coordinates": [
          163.19660827554193,
          51.47378087494634
        ]
      }
    },
    {
      "type": "Feature",
      "properties": {
        "norad_id": 40534,
        "name": "GPS BIIF-9  (PRN 26)",
        "group": "gps-ops",
        "lat": 12.884753114399231,
        "lon": -138.11312416920325,
        "alt_km": 19917.230151054388,
        "timestamp": "2025-12-09T14:52:26.420809+00:00",
        "meta_object_name": "GPS BIIF-9  (PRN 26)",
        "meta_object_id": "2015-013A",
        "meta_epoch": "2025-12-09T02:22:50.146464",
        "meta_mean_motion": 2.00562736,
        "meta_eccentricity": 0.01068992,
        "meta_inclination": 53.1983,
        "meta_ra_of_asc_node": 212.041,
        "meta_arg_of_pericenter": 38.3936,
        "meta_mean_anomaly": 322.4441,
        "meta_ephemeris_type": 0,
        "meta_classification_type": "U",
        "meta_norad_cat_id": 40534,
        "meta_element_set_no": 999,
        "meta_rev_at_epoch": 7801,
        "meta_bstar": 0,
        "meta_mean_motion_dot": 1.8e-07,
        "meta_mean_motion_ddot": 0,
        "tle_line1": "1 40534U 15013A   25343.09919151  .00000018  00000+0  00000+0 0  9995",
        "tle_line2": "2 40534  53.1983 212.0410 0106899  38.3936 322.4441  2.00562736 78019"
      },
      "geometry": {
        "type": "Point",
        "coordinates": [
          -138.11312416920325,
          12.884753114399231
        ]
      }
    }
  ]
}